*******************************************************************************
JPL/HORIZONS             886 Washingtonia (A917 WA)        2023-Sep-04 11:08:57
Rec #:     886 (+COV) Soln.date: 2023-Aug-24_23:10:47   # obs: 8331 (1910-2023)
 
IAU76/J2000 helio. ecliptic osc. elements (au, days, deg., period=Julian yrs):
 
  EPOCH=  2457298.5 ! 2015-Oct-03.00 (TDB)         Residual RMS= .23359
   EC= .2670295765088468   QR= 2.329694163961985   TP= 2456348.9326757598
   OM= 59.08110890964456   W=  301.5661212583376   IN= 16.81052414873758
   A= 3.178428609527795    MA= 165.1623842669275   ADIST= 4.027163055093604
   PER= 5.66666            N= .173934359           ANGMOM= .029554545
   DAN= 2.58978            DDN= 3.43146            L= 1.7741239
   B= -14.2655004          MOID= 1.37703001        TP= 2013-Feb-25.4326757598
 
Asteroid physical parameters (km, seconds, rotational period in hours):
   GM= n.a.                RAD= 43.3965            ROTPER= 9.001
   H= 9.47                 G= .150                 B-V= n.a.
                           ALBEDO= .078            STYP= C

ASTEROID comments: 
1: soln ref.= JPL#62, OCC=0
2: source=ORB
*******************************************************************************


*******************************************************************************
Ephemeris / API_USER Mon Sep  4 11:08:57 2023 Pasadena, USA      / Horizons
*******************************************************************************
Target body name: 886 Washingtonia (A917 WA)      {source: JPL#62}
Center body name: Solar System Barycenter (0)     {source: DE441}
Center-site name: BODY CENTER
*******************************************************************************
Start time      : A.D. 2023-Aug-12 00:00:00.0000 TDB
Stop  time      : A.D. 2023-Aug-13 00:00:00.0000 TDB
Step-size       : 2880 minutes
*******************************************************************************
Center geodetic : 0.0, 0.0, 0.0                   {E-lon(deg),Lat(deg),Alt(km)}
Center cylindric: 0.0, 0.0, 0.0                   {E-lon(deg),Dxy(km),Dz(km)}
Center radii    : (undefined)
Small perturbers: Yes                             {source: SB441-N16}
Output units    : KM-S
Calendar mode   : Mixed Julian/Gregorian
Output type     : GEOMETRIC cartesian states
Output format   : 2 (position and velocity)
Reference frame : Ecliptic of J2000.0
*******************************************************************************
Initial IAU76/J2000 heliocentric ecliptic osculating elements (au, days, deg.):
  EPOCH=  2457298.5 ! 2015-Oct-03.00 (TDB)         Residual RMS= .23359        
   EC= .2670295765088468   QR= 2.329694163961985   TP= 2456348.9326757598      
   OM= 59.08110890964456   W=  301.5661212583376   IN= 16.81052414873758       
  Equivalent ICRF heliocentric cartesian coordinates (au, au/d):
   X=-3.831921289030293E+00  Y= 2.985444019626682E-02  Z= 1.179465476658711E+00
  VX=-1.563065443381869E-03 VY=-6.305809063766165E-03 VZ=-3.507277840006041E-03
Asteroid physical parameters (km, seconds, rotational period in hours):        
   GM= n.a.                RAD= 43.3965            ROTPER= 9.001               
   H= 9.47                 G= .150                 B-V= n.a.                   
                           ALBEDO= .078            STYP= C                     
*******************************************************************************
JDTDB
   X     Y     Z
   VX    VY    VZ
*******************************************************************************
$$SOE
2460168.500000000 = A.D. 2023-Aug-12 00:00:00.0000 TDB 
 X = 4.019002548627603E+07 Y =-4.188159436489762E+08 Z =-7.641080559744808E+07
 VX= 1.675756772643564E+01 VY= 7.031139203533564E+00 VZ=-3.242801168740817E+00
$$EOE
*******************************************************************************
 
TIME

  Barycentric Dynamical Time ("TDB" or T_eph) output was requested. This
continuous coordinate time is equivalent to the relativistic proper time
of a clock at rest in a reference frame co-moving with the solar system
barycenter but outside the system's gravity well. It is the independent
variable in the solar system relativistic equations of motion.

  TDB runs at a uniform rate of one SI second per second and is independent
of irregularities in Earth's rotation.
 
CALENDAR SYSTEM

  Mixed calendar mode was active such that calendar dates after AD 1582-Oct-15
(if any) are in the modern Gregorian system. Dates prior to 1582-Oct-5 (if any)
are in the Julian calendar system, which is automatically extended for dates
prior to its adoption on 45-Jan-1 BC.  The Julian calendar is useful for
matching historical dates. The Gregorian calendar more accurately corresponds
to the Earth's orbital motion and seasons. A "Gregorian-only" calendar mode is
available if such physical events are the primary interest.

REFERENCE FRAME AND COORDINATES

  Ecliptic at the standard reference epoch

    Reference epoch: J2000.0
    X-Y plane: adopted Earth orbital plane at the reference epoch
               Note: IAU76 obliquity of 84381.448 arcseconds wrt ICRF X-Y plane
    X-axis   : ICRF
    Z-axis   : perpendicular to the X-Y plane in the directional (+ or -) sense
               of Earth's north pole at the reference epoch.

  Symbol meaning:

    JDTDB    Julian Day Number, Barycentric Dynamical Time
      X      X-component of position vector (km)
      Y      Y-component of position vector (km)
      Z      Z-component of position vector (km)
      VX     X-component of velocity vector (km/sec)                           
      VY     Y-component of velocity vector (km/sec)                           
      VZ     Z-component of velocity vector (km/sec)                           

ABERRATIONS AND CORRECTIONS

 Geometric state vectors have NO corrections or aberrations applied.

Computations by ...

    Solar System Dynamics Group, Horizons On-Line Ephemeris System
    4800 Oak Grove Drive, Jet Propulsion Laboratory
    Pasadena, CA  91109   USA

    General site: https://ssd.jpl.nasa.gov/
    Mailing list: https://ssd.jpl.nasa.gov/email_list.html
    System news : https://ssd.jpl.nasa.gov/horizons/news.html
    User Guide  : https://ssd.jpl.nasa.gov/horizons/manual.html
    Connect     : browser        https://ssd.jpl.nasa.gov/horizons/app.html#/x
                  API            https://ssd-api.jpl.nasa.gov/doc/horizons.html
                  command-line   telnet ssd.jpl.nasa.gov 6775
                  e-mail/batch   https://ssd.jpl.nasa.gov/ftp/ssd/hrzn_batch.txt
                  scripts        https://ssd.jpl.nasa.gov/ftp/ssd/SCRIPTS
    Author      : Jon.D.Giorgini@jpl.nasa.gov
*******************************************************************************
